<ndm xsi:noNamespaceSchemaLocation="https://sanaregistry.org/r/ndmxml/ndmxml-1.0-master.xsd">
    <omm id="CCSDS_OMM_VERS" version="2.0">
        <header>
            <CREATION_DATE/>
            <ORIGINATOR/>
        </header>
        <body>
            <segment>
                <metadata>
                    <OBJECT_NAME>NUSAT-9 (ALICE)</OBJECT_NAME>
                    <OBJECT_ID>2020-079B</OBJECT_ID>
                    <CENTER_NAME>EARTH</CENTER_NAME>
                    <REF_FRAME>TEME</REF_FRAME>
                    <TIME_SYSTEM>UTC</TIME_SYSTEM>
                    <MEAN_ELEMENT_THEORY>SGP4</MEAN_ELEMENT_THEORY>
                </metadata>
                <data>
                    <meanElements>
                        <EPOCH>2020-12-04T13:41:41.422848</EPOCH>
                        <MEAN_MOTION>15.31036422</MEAN_MOTION>
                        <ECCENTRICITY>.0009586</ECCENTRICITY>
                        <INCLINATION>97.2673</INCLINATION>
                        <RA_OF_ASC_NODE>51.2120</RA_OF_ASC_NODE>
                        <ARG_OF_PERICENTER>137.1474</ARG_OF_PERICENTER>
                        <MEAN_ANOMALY>339.1702</MEAN_ANOMALY>
                    </meanElements>
                    <tleParameters>
                        <EPHEMERIS_TYPE>0</EPHEMERIS_TYPE>
                        <CLASSIFICATION_TYPE>U</CLASSIFICATION_TYPE>
                        <NORAD_CAT_ID>46828</NORAD_CAT_ID>
                        <ELEMENT_SET_NO>999</ELEMENT_SET_NO>
                        <REV_AT_EPOCH>435</REV_AT_EPOCH>
                        <BSTAR>.14502E-3</BSTAR>
                        <MEAN_MOTION_DOT>4.278E-5</MEAN_MOTION_DOT>
                        <MEAN_MOTION_DDOT>0</MEAN_MOTION_DDOT>
                    </tleParameters>
                </data>
            </segment>
        </body>
    </omm>
    <omm id="CCSDS_OMM_VERS" version="2.0">
        <header>
            <CREATION_DATE/>
            <ORIGINATOR/>
        </header>
        <body>
            <segment>
                <metadata>
                    <OBJECT_NAME>NUSAT-11 (CORA)</OBJECT_NAME>
                    <OBJECT_ID>2020-079C</OBJECT_ID>
                    <CENTER_NAME>EARTH</CENTER_NAME>
                    <REF_FRAME>TEME</REF_FRAME>
                    <TIME_SYSTEM>UTC</TIME_SYSTEM>
                    <MEAN_ELEMENT_THEORY>SGP4</MEAN_ELEMENT_THEORY>
                </metadata>
                <data>
                    <meanElements>
                        <EPOCH>2020-12-04T13:38:19.836960</EPOCH>
                        <MEAN_MOTION>15.31082853</MEAN_MOTION>
                        <ECCENTRICITY>.0010295</ECCENTRICITY>
                        <INCLINATION>97.2639</INCLINATION>
                        <RA_OF_ASC_NODE>51.1981</RA_OF_ASC_NODE>
                        <ARG_OF_PERICENTER>142.1783</ARG_OF_PERICENTER>
                        <MEAN_ANOMALY>326.4561</MEAN_ANOMALY>
                    </meanElements>
                    <tleParameters>
                        <EPHEMERIS_TYPE>0</EPHEMERIS_TYPE>
                        <CLASSIFICATION_TYPE>U</CLASSIFICATION_TYPE>
                        <NORAD_CAT_ID>46829</NORAD_CAT_ID>
                        <ELEMENT_SET_NO>999</ELEMENT_SET_NO>
                        <REV_AT_EPOCH>434</REV_AT_EPOCH>
                        <BSTAR>.13978E-3</BSTAR>
                        <MEAN_MOTION_DOT>4.127E-5</MEAN_MOTION_DOT>
                        <MEAN_MOTION_DDOT>0</MEAN_MOTION_DDOT>
                    </tleParameters>
                </data>
            </segment>
        </body>
    </omm>
    <omm id="CCSDS_OMM_VERS" version="2.0">
        <header>
            <CREATION_DATE/>
            <ORIGINATOR/>
        </header>
        <body>
            <segment>
                <metadata>
                    <OBJECT_NAME>NUSAT-15 (KATHERINE)</OBJECT_NAME>
                    <OBJECT_ID>2020-079D</OBJECT_ID>
                    <CENTER_NAME>EARTH</CENTER_NAME>
                    <REF_FRAME>TEME</REF_FRAME>
                    <TIME_SYSTEM>UTC</TIME_SYSTEM>
                    <MEAN_ELEMENT_THEORY>SGP4</MEAN_ELEMENT_THEORY>
                </metadata>
                <data>
                    <meanElements>
                        <EPOCH>2020-12-03T12:31:10.835616</EPOCH>
                        <MEAN_MOTION>15.32194536</MEAN_MOTION>
                        <ECCENTRICITY>.0007497</ECCENTRICITY>
                        <INCLINATION>97.2683</INCLINATION>
                        <RA_OF_ASC_NODE>50.1955</RA_OF_ASC_NODE>
                        <ARG_OF_PERICENTER>140.7090</ARG_OF_PERICENTER>
                        <MEAN_ANOMALY>344.4007</MEAN_ANOMALY>
                    </meanElements>
                    <tleParameters>
                        <EPHEMERIS_TYPE>0</EPHEMERIS_TYPE>
                        <CLASSIFICATION_TYPE>U</CLASSIFICATION_TYPE>
                        <NORAD_CAT_ID>46830</NORAD_CAT_ID>
                        <ELEMENT_SET_NO>999</ELEMENT_SET_NO>
                        <REV_AT_EPOCH>418</REV_AT_EPOCH>
                        <BSTAR>.23655E-2</BSTAR>
                        <MEAN_MOTION_DOT>7.4144E-4</MEAN_MOTION_DOT>
                        <MEAN_MOTION_DDOT>0</MEAN_MOTION_DDOT>
                    </tleParameters>
                </data>
            </segment>
        </body>
    </omm>
    <omm id="CCSDS_OMM_VERS" version="2.0">
        <header>
            <CREATION_DATE/>
            <ORIGINATOR/>
        </header>
        <body>
            <segment>
                <metadata>
                    <OBJECT_NAME>NUSAT-14 (HEDY)</OBJECT_NAME>
                    <OBJECT_ID>2020-079E</OBJECT_ID>
                    <CENTER_NAME>EARTH</CENTER_NAME>
                    <REF_FRAME>TEME</REF_FRAME>
                    <TIME_SYSTEM>UTC</TIME_SYSTEM>
                    <MEAN_ELEMENT_THEORY>SGP4</MEAN_ELEMENT_THEORY>
                </metadata>
                <data>
                    <meanElements>
                        <EPOCH>2020-12-04T16:38:40.123680</EPOCH>
                        <MEAN_MOTION>15.31342015</MEAN_MOTION>
                        <ECCENTRICITY>.0010382</ECCENTRICITY>
                        <INCLINATION>97.2662</INCLINATION>
                        <RA_OF_ASC_NODE>51.3399</RA_OF_ASC_NODE>
                        <ARG_OF_PERICENTER>148.1130</ARG_OF_PERICENTER>
                        <MEAN_ANOMALY>314.8227</MEAN_ANOMALY>
                    </meanElements>
                    <tleParameters>
                        <EPHEMERIS_TYPE>0</EPHEMERIS_TYPE>
                        <CLASSIFICATION_TYPE>U</CLASSIFICATION_TYPE>
                        <NORAD_CAT_ID>46831</NORAD_CAT_ID>
                        <ELEMENT_SET_NO>999</ELEMENT_SET_NO>
                        <REV_AT_EPOCH>436</REV_AT_EPOCH>
                        <BSTAR>.16072E-3</BSTAR>
                        <MEAN_MOTION_DOT>4.796E-5</MEAN_MOTION_DOT>
                        <MEAN_MOTION_DDOT>0</MEAN_MOTION_DDOT>
                    </tleParameters>
                </data>
            </segment>
        </body>
    </omm>
    <omm id="CCSDS_OMM_VERS" version="2.0">
        <header>
            <CREATION_DATE/>
            <ORIGINATOR/>
        </header>
        <body>
            <segment>
                <metadata>
                    <OBJECT_NAME>NUSAT-10 (CAROLINE)</OBJECT_NAME>
                    <OBJECT_ID>2020-079F</OBJECT_ID>
                    <CENTER_NAME>EARTH</CENTER_NAME>
                    <REF_FRAME>TEME</REF_FRAME>
                    <TIME_SYSTEM>UTC</TIME_SYSTEM>
                    <MEAN_ELEMENT_THEORY>SGP4</MEAN_ELEMENT_THEORY>
                </metadata>
                <data>
                    <meanElements>
                        <EPOCH>2020-12-04T16:40:38.957376</EPOCH>
                        <MEAN_MOTION>15.31252165</MEAN_MOTION>
                        <ECCENTRICITY>.0009657</ECCENTRICITY>
                        <INCLINATION>97.2650</INCLINATION>
                        <RA_OF_ASC_NODE>51.3336</RA_OF_ASC_NODE>
                        <ARG_OF_PERICENTER>144.3576</ARG_OF_PERICENTER>
                        <MEAN_ANOMALY>318.4833</MEAN_ANOMALY>
                    </meanElements>
                    <tleParameters>
                        <EPHEMERIS_TYPE>0</EPHEMERIS_TYPE>
                        <CLASSIFICATION_TYPE>U</CLASSIFICATION_TYPE>
                        <NORAD_CAT_ID>46832</NORAD_CAT_ID>
                        <ELEMENT_SET_NO>999</ELEMENT_SET_NO>
                        <REV_AT_EPOCH>436</REV_AT_EPOCH>
                        <BSTAR>.14454E-3</BSTAR>
                        <MEAN_MOTION_DOT>4.292E-5</MEAN_MOTION_DOT>
                        <MEAN_MOTION_DDOT>0</MEAN_MOTION_DDOT>
                    </tleParameters>
                </data>
            </segment>
        </body>
    </omm>
    
</ndm>